{"fetched_at":"2026-03-29T16:36:15Z","count":15609,"tles":[{"name":"STARLINK-2102","line1":"1 47382U 21005AK  26087.88105137 -.00001328  00000+0 -32723-4 0  9994","line2":"2 47382  53.1588 297.4148 0001486  99.8986 260.2183 15.30183745286475","category":"Starlink"}]}